CTC1_L_00473001-01
1 10000U 25401MN  26075.70035880  .00000000  00000+0  00000-0 0  9993
2 10000  43.0000   0.0000 0000000   0.0000   0.0000 15.55740824    12
CTC1_L_00473002-01
1 10001U 22721P   26075.70035880  .00000000  00000+0  00000-0 0  9996
2 10001  43.0000  12.0000 0000000   0.0000  48.0000 15.55740824    18
CTC1_L_00473003-01
1 10002U 25775ID  26075.70035880  .00000000  00000+0  00000-0 0  9999
2 10002  43.0000  24.0000 0000000   0.0000  96.0000 15.55740824    15
CTC1_L_00473004-01
1 10003U 22223VB  26075.70035880  .00000000  00000+0  00000-0 0  9995
2 10003  43.0000  36.0000 0000000   0.0000 144.0000 15.55740824    13
CTC1_L_00473005-01
1 10004U 24416FP  26075.70035880  .00000000  00000+0  00000-0 0  9992
2 10004  43.0000  48.0000 0000000   0.0000 192.0000 15.55740824    10
CTC1_L_00473006-01
1 10005U 23751FW  26075.70035880  .00000000  00000+0  00000-0 0  9994
2 10005  43.0000  60.0000 0000000   0.0000 240.0000 15.55740824    19
CTC1_L_00473007-01
1 10006U 22617YQ  26075.70035880  .00000000  00000+0  00000-0 0  9995
2 10006  43.0000  72.0000 0000000   0.0000 288.0000 15.55740824    15
CTC1_L_00473008-01
1 10007U 22094MH  26075.70035880  .00000000  00000+0  00000-0 0  9995
2 10007  43.0000  84.0000 0000000   0.0000 336.0000 15.55740824    13
CTC1_L_00473009-01
1 10008U 25560RK  26075.70035880  .00000000  00000+0  00000-0 0  9997
2 10008  43.0000  96.0000 0000000   0.0000  24.0000 15.55740824    11
CTC1_L_00473010-01
1 10009U 23101BV  26075.70035880  .00000000  00000+0  00000-0 0  9997
2 10009  43.0000 108.0000 0000000   0.0000  72.0000 15.55740824    19
CTC1_L_00473011-01
1 10010U 26722HV  26075.70035880  .00000000  00000+0  00000-0 0  9991
2 10010  43.0000 120.0000 0000000   0.0000 120.0000 15.55740824    19
CTC1_L_00473012-01
1 10011U 23235LB  26075.70035880  .00000000  00000+0  00000-0 0  9998
2 10011  43.0000 132.0000 0000000   0.0000 168.0000 15.55740824    15
CTC1_L_00473013-01
1 10012U 26264LQ  26075.70035880  .00000000  00000+0  00000-0 0  9994
2 10012  43.0000 144.0000 0000000   0.0000 216.0000 15.55740824    13
CTC1_L_00473014-01
1 10013U 22247ON  26075.70035880  .00000000  00000+0  00000-0 0  9992
2 10013  43.0000 156.0000 0000000   0.0000 264.0000 15.55740824    10
CTC1_L_00473015-01
1 10014U 26901EE  26075.70035880  .00000000  00000+0  00000-0 0  9994
2 10014  43.0000 168.0000 0000000   0.0000 312.0000 15.55740824    18
CTC1_L_00473016-01
1 10015U 24218GL  26075.70035880  .00000000  00000+0  00000-0 0  9994
2 10015  43.0000 180.0000 0000000   0.0000   0.0000 15.55740824    17
CTC1_L_00473017-01
1 10016U 24646AB  26075.70035880  .00000000  00000+0  00000-0 0  9990
2 10016  43.0000 192.0000 0000000   0.0000  48.0000 15.55740824    13
CTC1_L_00473018-01
1 10017U 25710YT  26075.70035880  .00000000  00000+0  00000-0 0  9994
2 10017  43.0000 204.0000 0000000   0.0000  96.0000 15.55740824    11
CTC1_L_00473019-01
1 10018U 22906UL  26075.70035880  .00000000  00000+0  00000-0 0  9999
2 10018  43.0000 216.0000 0000000   0.0000 144.0000 15.55740824    19
CTC1_L_00473020-01
1 10019U 24320PH  26075.70035880  .00000000  00000+0  00000-0 0  9992
2 10019  43.0000 228.0000 0000000   0.0000 192.0000 15.55740824    16
CTC1_L_00473021-01
1 10020U 26966TP  26075.70035880  .00000000  00000+0  00000-0 0  9992
2 10020  43.0000 240.0000 0000000   0.0000 240.0000 15.55740824    16
CTC1_L_00473022-01
1 10021U 24268ZE  26075.70035880  .00000000  00000+0  00000-0 0  9996
2 10021  43.0000 252.0000 0000000   0.0000 288.0000 15.55740824    12
CTC1_L_00473023-01
1 10022U 22321FB  26075.70035880  .00000000  00000+0  00000-0 0  9995
2 10022  43.0000 264.0000 0000000   0.0000 336.0000 15.55740824    10
CTC1_L_00473024-01
1 10023U 23288TC  26075.70035880  .00000000  00000+0  00000-0 0  9999
2 10023  43.0000 276.0000 0000000   0.0000  24.0000 15.55740824    18
CTC1_L_00473025-01
1 10024U 22201BM  26075.70035880  .00000000  00000+0  00000-0 0  9994
2 10024  43.0000 288.0000 0000000   0.0000  72.0000 15.55740824    15
CTC1_L_00473026-01
1 10025U 25793WZ  26075.70035880  .00000000  00000+0  00000-0 0  9994
2 10025  43.0000 300.0000 0000000   0.0000 120.0000 15.55740824    15
CTC1_L_00473027-01
1 10026U 25265CQ  26075.70035880  .00000000  00000+0  00000-0 0  9999
2 10026  43.0000 312.0000 0000000   0.0000 168.0000 15.55740824    11
CTC1_L_00473028-01
1 10027U 23522S   26075.70035880  .00000000  00000+0  00000-0 0  9994
2 10027  43.0000 324.0000 0000000   0.0000 216.0000 15.55740824    19
CTC1_L_00473029-01
1 10028U 22584PF  26075.70035880  .00000000  00000+0  00000-0 0  9992
2 10028  43.0000 336.0000 0000000   0.0000 264.0000 15.55740824    16
CTC1_L_00473030-01
1 10029U 22502YX  26075.70035880  .00000000  00000+0  00000-0 0  9993
2 10029  43.0000 348.0000 0000000   0.0000 312.0000 15.55740824    14
